OBJECT_NAME,OBJECT_ID,EPOCH,MEAN_MOTION,ECCENTRICITY,INCLINATION,RA_OF_ASC_NODE,ARG_OF_PERICENTER,MEAN_ANOMALY,EPHEMERIS_TYPE,CLASSIFICATION_TYPE,NORAD_CAT_ID,ELEMENT_SET_NO,REV_AT_EPOCH,BSTAR,MEAN_MOTION_DOT,MEAN_MOTION_DDOT
PERSEUS-M1,2014-033AF,2026-05-21T06:34:57.233856,14.95531145,.0012546,97.9636,84.9689,33.4876,326.7135,0,U,40039,999,64661,.99392E-4,.1042E-4,0
POLYITAN-1,2014-033AJ,2026-05-21T11:33:44.328384,15.32223174,.0005914,98.0963,165.2371,228.6058,131.4674,0,U,40042,999,64950,.40079E-3,.12393E-3,0
TIGRISAT,2014-033AK,2026-05-21T08:48:44.574048,14.85031228,.0049943,97.7802,292.0012,161.1451,199.1628,0,U,40043,999,64164,.1697E-3,.1425E-4,0
AEROCUBE 6A,2014-033AM,2026-05-21T10:29:46.295232,14.97774512,.0039934,97.7226,308.6815,104.5559,256.0098,0,U,40045,999,64261,.29471E-3,.3456E-4,0
AEROCUBE 6B,2014-033AN,2026-05-21T04:45:57.953088,14.99198163,.00387689,97.7184,308.1780,98.5412,262.0207,0,U,40046,999,64271,.3729595E-3,.4553E-4,0
CANX-4,2014-034C,2026-05-21T03:08:53.261664,14.81207409,.00141407,98.3155,15.4472,97.2952,262.9867,0,U,40055,999,64052,.76874747E-4,.542E-5,0
CANX-5,2014-034D,2026-05-21T11:13:27.530400,14.81225039,.0014131,98.3158,15.8381,96.4887,263.7934,0,U,40056,999,63138,.7972E-4,.564E-5,0
UKUBE-1,2014-037F,2026-05-21T10:55:45.116256,15.13063709,.0000625,98.4247,141.9303,139.0150,221.1125,0,U,40074,999,64451,.31473E-3,.5489E-4,0
BRITE-PL2 (HEWELIUSZ),2014-049B,2026-05-21T12:36:52.555392,14.94478729,.0013791,97.9071,253.3266,192.2030,167.8857,0,U,40119,999,63746,.15195E-3,.1583E-4,0
AEROCUBE 5C,2015-058B,2026-05-21T18:00:56.559168,14.91286846,.0129993,64.7681,344.8238,73.6790,287.8572,0,U,40965,999,36171,.19249E-3,.208E-4,0
AEROCUBE 7,2015-058C,2026-05-21T18:07:25.899168,14.95499725,.0119755,64.7627,327.5936,72.3182,289.0964,0,U,40966,999,36200,.25004E-3,.3024E-4,0
FOX-1A (AO-85),2015-058D,2026-05-21T17:20:26.838240,14.90796223,.0129305,64.7762,1.2181,66.9853,294.4835,0,U,40967,999,10962,.20124E-3,.2149E-4,0
SINOD-D 1,2015-058E,2026-05-21T17:40:13.490400,14.95677920,.0117826,64.7764,341.7333,63.7043,297.6119,0,U,40968,999,11270,.2467E-3,.2982E-4,0
SNAP-3 ALICE,2015-058G,2026-05-21T12:27:10.916640,15.54370820,.003342,64.7512,195.6903,25.5487,334.7299,0,U,40970,999,11273,.82382E-3,.55808E-3,0
LMRST-SAT,2015-058H,2026-05-21T17:43:04.754208,14.90422064,.0131059,64.7768,357.4574,68.9948,292.5126,0,U,40971,999,10961,.20451E-3,.2174E-4,0
SNAP-3 EDDIE,2015-058J,2026-05-21T12:42:17.390880,15.55521247,.0033753,64.7429,186.5707,29.3335,330.9693,0,U,40972,999,11487,.75061E-3,.53049E-3,0
PROPCUBE 3,2015-058K,2026-05-21T16:54:39.900672,14.94058276,.012316,64.7692,335.2658,70.4786,290.9581,0,U,40973,999,11084,.22205E-3,.2579E-4,0
BISONSAT,2015-058L,2026-05-21T17:03:08.521056,15.15600373,.0078465,64.7598,259.2032,58.4089,302.4663,0,U,40974,999,11160,.36925E-3,.7411E-4,0
SNAP-3 JIMI,2015-058M,2026-05-21T18:12:56.107008,15.02002028,.0105175,64.7655,303.3711,66.3344,294.8769,0,U,40975,999,11025,.28638E-3,.4054E-4,0
PROPCUBE 1 (FLORA),2015-058N,2026-05-21T17:39:51.234624,14.89052663,.0129853,64.7759,17.2059,71.2842,290.2311,0,U,40976,999,11232,.19837E-3,.2018E-4,0
SINOD-D 3,2015-058P,2026-05-21T17:33:48.896352,14.93790689,.0118335,64.7735,358.4185,68.7147,292.6553,0,U,40977,999,11080,.24595E-3,.2822E-4,0
HORYU-4,2016-012D,2026-05-21T09:35:09.803328,15.80437185,.0004037,30.9883,273.2630,95.4050,264.7068,0,U,41340,999,56655,.7546E-3,.152227E-2,0
RAVAN,2016-067B,2026-05-21T15:09:24.719904,15.51970526,.0007115,97.9920,28.1899,97.1288,263.0771,0,U,41849,999,52357,.51091E-3,.30701E-3,0
CELTEE 1,2016-067C,2026-05-21T09:44:21.229728,15.19382960,.0001371,98.0703,6.1473,54.8630,305.2731,0,U,41850,999,52181,.16163E-3,.3341E-4,0
OPTICUBE 04,2016-067D,2026-05-21T13:34:18.780096,15.09530313,.0015021,98.0724,352.4590,203.1082,156.9471,0,U,41851,999,52115,.76156E-4,.1152E-4,0
AEROCUBE 8D,2016-067E,2026-05-21T13:37:00.297120,15.23975180,.0002551,98.0713,9.7173,202.6137,157.4986,0,U,41852,999,52201,.21253E-3,.5062E-4,0
AEROCUBE 8C,2016-067F,2026-05-21T04:51:55.150560,15.24211253,.00061888,98.0585,6.5880,141.8657,218.3018,0,U,41853,999,52195,.20692415E-3,.4964E-4,0
CORVUS BC2,2017-042X,2026-05-21T10:07:28.428384,15.06096869,.0012673,97.4041,303.8205,197.0527,163.0277,0,U,42846,999,48303,.1169E-3,.1651E-4,0
CORVUS BC1,2017-042Y,2026-05-21T10:04:05.693376,15.06267692,.001212,97.4072,304.6146,173.2390,186.9003,0,U,42847,999,48306,.13283E-3,.1893E-4,0
MAKERSAT 0,2017-073D,2026-05-21T03:08:32.718336,15.30862288,.01101185,97.4655,23.4574,10.4350,349.9139,0,U,43016,999,46232,.4830282E-3,.1733E-3,0
